[
    {
        "CCSDS_OMM_VERS": "3.0",
        "COMMENT": "GENERATED VIA SPACE-TRACK.ORG API",
        "CREATION_DATE": "2025-07-31T06:56:44",
        "ORIGINATOR": "18 SPCS",
        "OBJECT_NAME": "NOAA 21",
        "OBJECT_ID": "2022-150A",
        "CENTER_NAME": "EARTH",
        "REF_FRAME": "TEME",
        "TIME_SYSTEM": "UTC",
        "MEAN_ELEMENT_THEORY": "SGP4",
        "EPOCH": "2025-07-31T04:31:28.588512",
        "MEAN_MOTION": "14.19547328",
        "ECCENTRICITY": "0.00024030",
        "INCLINATION": "98.7274",
        "RA_OF_ASC_NODE": "150.3183",
        "ARG_OF_PERICENTER": "50.0060",
        "MEAN_ANOMALY": "310.1326",
        "EPHEMERIS_TYPE": "0",
        "CLASSIFICATION_TYPE": "U",
        "NORAD_CAT_ID": "54234",
        "ELEMENT_SET_NO": "999",
        "REV_AT_EPOCH": "14100",
        "BSTAR": "0.00004987200000",
        "MEAN_MOTION_DOT": "0.00000061",
        "MEAN_MOTION_DDOT": "0.0000000000000",
        "SEMIMAJOR_AXIS": "7205.021",
        "PERIOD": "101.441",
        "APOAPSIS": "828.617",
        "PERIAPSIS": "825.155",
        "OBJECT_TYPE": "PAYLOAD",
        "RCS_SIZE": "LARGE",
        "COUNTRY_CODE": "US",
        "LAUNCH_DATE": "2022-11-10",
        "SITE": "AFWTR",
        "DECAY_DATE": null,
        "FILE": "4801212",
        "GP_ID": "293937790",
        "TLE_LINE0": "0 NOAA 21",
        "TLE_LINE1": "1 54234U 22150A   25212.18852533  .00000061  00000-0  49872-4 0  9996",
        "TLE_LINE2": "2 54234  98.7274 150.3183 0002403  50.0060 310.1326 14.19547328141004"
    }
]